{
    "links": {
        "self": "http://www.neowsapp.com/rest/v1/neo/3727346?api_key=iIulBulltgU6a56xZRHN4H3l9WmuAYTsLGpBGhQ2"
    },
    "id": "3727346",
    "neo_reference_id": "3727346",
    "name": "(2015 RT82)",
    "designation": "2015 RT82",
    "nasa_jpl_url": "http://ssd.jpl.nasa.gov/sbdb.cgi?sstr=3727346",
    "absolute_magnitude_h": 25.7,
    "estimated_diameter": {
        "kilometers": {
            "estimated_diameter_min": 0.0192555078,
            "estimated_diameter_max": 0.0430566244
        },
        "meters": {
            "estimated_diameter_min": 19.2555078188,
            "estimated_diameter_max": 43.0566244241
        },
        "miles": {
            "estimated_diameter_min": 0.0119648141,
            "estimated_diameter_max": 0.0267541378
        },
        "feet": {
            "estimated_diameter_min": 63.1742402722,
            "estimated_diameter_max": 141.2618956756
        }
    },
    "is_potentially_hazardous_asteroid": false,
    "close_approach_data": [
        {
            "close_approach_date": "1970-05-11",
            "close_approach_date_full": "1970-May-11 12:15",
            "epoch_date_close_approach": 11276100000,
            "relative_velocity": {
                "kilometers_per_second": "14.1412508733",
                "kilometers_per_hour": "50908.5031438634",
                "miles_per_hour": "31632.5640784745"
            },
            "miss_distance": {
                "astronomical": "0.3224669702",
                "lunar": "125.4396514078",
                "kilometers": "48240371.887273474",
                "miles": "29975177.1233189812"
            },
            "orbiting_body": "Earth"
        },
        {
            "close_approach_date": "2004-10-03",
            "close_approach_date_full": "2004-Oct-03 07:57",
            "epoch_date_close_approach": 1096790220000,
            "relative_velocity": {
                "kilometers_per_second": "18.777783578",
                "kilometers_per_hour": "67600.0208808738",
                "miles_per_hour": "42004.0240856741"
            },
            "miss_distance": {
                "astronomical": "0.4685400079",
                "lunar": "182.2620630731",
                "kilometers": "70092587.191623173",
                "miles": "43553514.0775908674"
            },
            "orbiting_body": "Earth"
        },
        {
            "close_approach_date": "2011-05-08",
            "close_approach_date_full": "2011-May-08 11:15",
            "epoch_date_close_approach": 1304853300000,
            "relative_velocity": {
                "kilometers_per_second": "16.3391622444",
                "kilometers_per_hour": "58820.9840799376",
                "miles_per_hour": "36549.072024559"
            },
            "miss_distance": {
                "astronomical": "0.3962699743",
                "lunar": "154.1490200027",
                "kilometers": "59281144.100234741",
                "miles": "36835594.8546557858"
            },
            "orbiting_body": "Earth"
        },
        {
            "close_approach_date": "2015-04-27",
            "close_approach_date_full": "2015-Apr-27 22:31",
            "epoch_date_close_approach": 1430173860000,
            "relative_velocity": {
                "kilometers_per_second": "2.9143249679",
                "kilometers_per_hour": "10491.5698843897",
                "miles_per_hour": "6519.0535206643"
            },
            "miss_distance": {
                "astronomical": "0.2400765122",
                "lunar": "93.3897632458",
                "kilometers": "35914934.862149014",
                "miles": "22316505.6932198332"
            },
            "orbiting_body": "Earth"
        },
        {
            "close_approach_date": "2015-09-04",
            "close_approach_date_full": "2015-Sep-04 22:51",
            "epoch_date_close_approach": 1441407060000,
            "relative_velocity": {
                "kilometers_per_second": "5.6714167483",
                "kilometers_per_hour": "20417.1002940132",
                "miles_per_hour": "12686.3921243551"
            },
            "miss_distance": {
                "astronomical": "0.0173068202",
                "lunar": "6.7323530578",
                "kilometers": "2589063.438392974",
                "miles": "1608769.4209880812"
            },
            "orbiting_body": "Earth"
        }
    ],
    "orbital_data": {
        "orbit_id": "11",
        "orbit_determination_date": "2017-04-06 08:31:59",
        "first_observation_date": "2015-09-14",
        "last_observation_date": "2015-10-02",
        "data_arc_in_days": 18,
        "observations_used": 31,
        "orbit_uncertainty": "7",
        "minimum_orbit_intersection": ".0087953",
        "jupiter_tisserand_invariant": "5.158",
        "epoch_osculation": "2459000.5",
        "eccentricity": ".2136536874823161",
        "semi_major_axis": "1.23660193926225",
        "inclination": "3.96305249294945",
        "ascending_node_longitude": "165.2045419654268",
        "orbital_period": "502.2770232279233",
        "perihelion_distance": ".9723973749910872",
        "perihelion_argument": "134.3098986634819",
        "aphelion_distance": "1.500806503533413",
        "perihelion_time": "2459241.611250178066",
        "mean_anomaly": "187.1868987630048",
        "mean_motion": ".716735951181743",
        "equinox": "J2000",
        "orbit_class": {
            "orbit_class_type": "APO",
            "orbit_class_description": "Near-Earth asteroid orbits which cross the Earth’s orbit similar to that of 1862 Apollo",
            "orbit_class_range": "a (semi-major axis) > 1.0 AU; q (perihelion) < 1.017 AU"
        }
    },
    "is_sentry_object": false
}